[{"OBJECT_NAME":"ALTAIR (RS65S)","OBJECT_ID":"2024-199AW","EPOCH":"2026-03-09T21:31:54.569568","MEAN_MOTION":15.34998047,"ECCENTRICITY":0.00120363,"INCLINATION":97.3179,"RA_OF_ASC_NODE":298.9542,"ARG_OF_PERICENTER":307.5319,"MEAN_ANOMALY":52.483,"EPHEMERIS_TYPE":0,"CLASSIFICATION_TYPE":"U","NORAD_CAT_ID":61779,"ELEMENT_SET_NO":999,"REV_AT_EPOCH":12187,"BSTAR":0.00027541775,"MEAN_MOTION_DOT":9.293e-5,"MEAN_MOTION_DDOT":0},{"OBJECT_NAME":"STARLINK-34136","OBJECT_ID":"2025-110S","EPOCH":"2026-03-09T07:18:32.220576","MEAN_MOTION":15.30195627,"ECCENTRICITY":0.00011703,"INCLINATION":53.1606,"RA_OF_ASC_NODE":28.5391,"ARG_OF_PERICENTER":86.0249,"MEAN_ANOMALY":274.0885,"EPHEMERIS_TYPE":0,"CLASSIFICATION_TYPE":"U","NORAD_CAT_ID":64112,"ELEMENT_SET_NO":999,"REV_AT_EPOCH":4582,"BSTAR":0.00074093777,"MEAN_MOTION_DOT":0.00021646,"MEAN_MOTION_DDOT":0}]
